     2              NAVIGATION DATA                         RINEX VERSION / TYPE
ASHTORIN                                04 - JUN - 09 07:57 PGM / RUN BY / DATE 
                                                            COMMENT             
                                                            END OF HEADER       
 7 09  6  4  2  0  0.0  .177030451596D-04 -.682121026330D-12  .000000000000D+00 
     .640000000000D+02 -.775937500000D+02  .414374403214D-08 -.136543839096D+00 
    -.395625829697D-05  .262314360589D-02  .106263905764D-04  .515367327881D+04 
     .352800000000D+06  .149011611938D-07  .261990888067D+01  .186264514923D-07 
     .967726992045D+00  .176281250000D+03  .287818657749D+01 -.779746765297D-08 
     .340014162955D-09  .000000000000D+00  .153400000000D+04  .000000000000D+00 
     .000000000000D+00  .000000000000D+00 -.107102096081D-07  .640000000000D+02 
     .351870000000D+06  .000000000000D+00  .000000000000D+00  .000000000000D+00 
 8 09  6  4  1 59 44.0 -.206174794585D-03 -.181898940355D-11  .000000000000D+00 
     .690000000000D+02 -.685937500000D+02  .370265423041D-08 -.865620226980D+00 
    -.377185642719D-05  .106056954246D-01  .105444341898D-04  .515364994431D+04 
     .352784000000D+06  .838190317154D-07  .268040432489D+01 -.124797224998D-06 
     .988962311507D+00  .187437500000D+03  .299261435753D+01 -.758638743206D-08 
     .441804117201D-09  .000000000000D+00  .153400000000D+04  .000000000000D+00 
     .000000000000D+00  .000000000000D+00 -.372529029846D-08  .690000000000D+02 
     .351870000000D+06  .000000000000D+00  .000000000000D+00  .000000000000D+00 
28 09  6  4  2  0  0.0 -.252318568528D-04 -.227373675443D-12  .000000000000D+00 
     .220000000000D+02  .102187500000D+02  .469769567788D-08  .311060389398D+01 
     .435858964920D-06  .148862481583D-01  .699982047081D-05  .515364018250D+04 
     .352800000000D+06  .145286321640D-06 -.258654233205D+01 -.279396772385D-06 
     .966792456569D+00  .245250000000D+03 -.202460599660D+01 -.777175229611D-08 
     .398945189097D-09  .000000000000D+00  .153400000000D+04  .000000000000D+00 
     .000000000000D+00  .000000000000D+00 -.107102096081D-07  .220000000000D+02 
     .351870000000D+06  .000000000000D+00  .000000000000D+00  .000000000000D+00 
17 09  6  4  2  0  0.0  .624703243375D-04  .204636307899D-11  .000000000000D+00 
     .430000000000D+02 -.221562500000D+02  .484770192624D-08  .258895975444D+01 
    -.129453837872D-05  .451934000012D-02  .722147524357D-05  .515368179703D+04 
     .352800000000D+06 -.633299350739D-07 -.155224230064D+01 -.819563865662D-07 
     .959270023550D+00  .240093750000D+03 -.263770553950D+01 -.801569102856D-08 
    -.523950396066D-09  .000000000000D+00  .153400000000D+04  .000000000000D+00 
     .000000000000D+00  .000000000000D+00 -.102445483208D-07  .430000000000D+02 
     .351960000000D+06  .000000000000D+00  .000000000000D+00  .000000000000D+00 
11 09  6  4  2  0  0.0 -.509712845087D-05 -.147792889038D-11  .000000000000D+00 
     .890000000000D+02  .414062500000D+02  .603239413057D-08 -.315757462691D+00 
     .206194818020D-05  .937327556312D-02  .100377947092D-04  .515369101143D+04 
     .352800000000D+06  .186264514923D-07 -.735814705590D+00  .119209289551D-06 
     .889422076754D+00  .144187500000D+03  .696870948569D+00 -.882001024597D-08 
    -.542879755978D-09  .000000000000D+00  .153400000000D+04  .000000000000D+00 
     .000000000000D+00  .000000000000D+00 -.116415321827D-07  .890000000000D+02 
     .351990000000D+06  .000000000000D+00  .000000000000D+00  .000000000000D+00 
13 09  6  4  2  0  0.0  .298643019050D-03  .909494701773D-12  .000000000000D+00 
     .790000000000D+02 -.929687500000D+02  .371801201298D-08  .218700321595D+01 
    -.477768480778D-05  .415699149016D-02  .402331352234D-05  .515370192909D+04 
     .352800000000D+06  .104308128357D-06  .162996748198D+01  .204890966415D-07 
     .994622239151D+00  .319781250000D+03  .158103179698D+01 -.785354141724D-08 
    -.128576784311D-09  .000000000000D+00  .153400000000D+04  .000000000000D+00 
     .000000000000D+00  .000000000000D+00 -.111758708954D-07  .790000000000D+02 
     .351990000000D+06  .000000000000D+00  .000000000000D+00  .000000000000D+00 
19 09  6  4  2  0  0.0  .236500054598D-04 -.125055521494D-11  .000000000000D+00 
     .430000000000D+02 -.161250000000D+02  .495842082384D-08  .198137192364D+01 
    -.536441802979D-06  .563898764085D-02  .737421214581D-05  .515360748482D+04 
     .352800000000D+06  .165775418282D-06 -.149618404641D+01  .109896063805D-06 
     .956987166220D+00  .233156250000D+03 -.356418667982D+00 -.813391023858D-08 
    -.582167106740D-09  .000000000000D+00  .153400000000D+04  .000000000000D+00 
     .000000000000D+00  .000000000000D+00 -.144354999065D-07  .430000000000D+02 
     .352050000000D+06  .000000000000D+00  .000000000000D+00  .000000000000D+00 
25 09  6  4  2  0  0.0  .445579178631D-03  .185309545486D-10  .000000000000D+00 
     .710000000000D+02 -.843125000000D+02  .406052628008D-08 -.197293590998D+01 
    -.406801700592D-05  .113905870821D-01  .108499079943D-04  .515365513420D+04 
     .352800000000D+06 -.372529029846D-07  .252545238279D+01  .312924385071D-06 
     .969920751812D+00  .172375000000D+03 -.120757969062D+01 -.766246202944D-08 
     .258582199558D-09  .000000000000D+00  .153400000000D+04  .000000000000D+00 
     .100000000000D+01  .000000000000D+00 -.745058059692D-08  .710000000000D+02 
     .352050000000D+06  .000000000000D+00  .000000000000D+00  .000000000000D+00
